COMMENT,ORIGINATOR,NORAD_CAT_ID,OBJECT_NAME,OBJECT_TYPE,CLASSIFICATION_TYPE,INTLDES,EPOCH,EPOCH_MICROSECONDS,MEAN_MOTION,ECCENTRICITY,INCLINATION,RA_OF_ASC_NODE,ARG_OF_PERICENTER,MEAN_ANOMALY,EPHEMERIS_TYPE,ELEMENT_SET_NO,REV_AT_EPOCH,BSTAR,MEAN_MOTION_DOT,MEAN_MOTION_DDOT,FILE,TLE_LINE0,TLE_LINE1,TLE_LINE2,OBJECT_ID,OBJECT_NUMBER,SEMIMAJOR_AXIS,PERIOD,APOGEE,PERIGEE,DECAYED,date
GENERATED VIA SPACETRACK.ORG API,18 SPCS,52180,SPACEBEE-134,PAYLOAD,U,22033Z,2023/3/15 3:44,275328,15.35818709,0.000749,97.352,157.0932,147.7614,212.4089,0,999,5296,0.0021148,0.00074308,0,3861278,0 SPACEBEE-134,1 52180U 22033Z   23074.15583652  .00074308  00000-0  21148-2 0  9997,2 52180  97.3520 157.0932 0007490 147.7614 212.4089 15.35818709 52966,2022-033Z,52180,6836.627,93.761,463.612,453.371,1,
GENERATED VIA SPACETRACK.ORG API,18 SPCS,52180,SPACEBEE-134,PAYLOAD,U,22033Z,2023/3/15 3:44,275328,15.35818709,0.000749,97.352,157.0932,147.7614,212.4089,0,999,5298,0.0021148,0.00074308,0,3861350,0 SPACEBEE-134,1 52180U 22033Z   23074.15583652  .00074308  00000-0  21148-2 0  9997,2 52180  97.3520 157.0932 0007490 147.7614 212.4089 15.35818709 52988,2022-033Z,52180,6836.627,93.761,463.612,453.371,1,
GENERATED VIA SPACETRACK.ORG API,18 SPCS,52180,SPACEBEE-134,PAYLOAD,U,22033Z,2023/3/16 4:45,627200,15.35979711,0.0007417,97.3517,158.134,144.1835,215.9907,0,999,5312,0.0022316,0.00078866,0,3861962,0 SPACEBEE-134,1 52180U 22033Z   23075.19824800  .00078866  00000-0  22316-2 0  9996,2 52180  97.3517 158.1340 0007417 144.1835 215.9907 15.35979711 53129,2022-033Z,52180,6836.149,93.751,463.084,452.944,1,
GENERATED VIA SPACETRACK.ORG API,18 SPCS,52180,SPACEBEE-134,PAYLOAD,U,22033Z,2023/3/16 4:45,627200,15.35979711,0.0007417,97.3517,158.134,144.1835,215.9907,0,999,5314,0.0022316,0.00078866,0,3862295,0 SPACEBEE-134,1 52180U 22033Z   23075.19824800  .00078866  00000-0  22316-2 0  9996,2 52180  97.3517 158.1340 0007417 144.1835 215.9907 15.35979711 53141,2022-033Z,52180,6836.149,93.751,463.084,452.944,1,
GENERATED VIA SPACETRACK.ORG API,18 SPCS,52180,SPACEBEE-134,PAYLOAD,U,22033Z,2023/3/17 4:12,364896,15.36091749,0.0007386,97.3522,159.1104,141.2582,218.9193,0,999,5327,0.0013781,0.00048655,0,3862944,0 SPACEBEE-134,1 52180U 22033Z   23076.17542089  .00048655  00000-0  13781-2 0  9990,2 52180  97.3522 159.1104 0007386 141.2582 218.9193 15.36091749 53279,2022-033Z,52180,6835.817,93.744,462.731,452.633,1,
GENERATED VIA SPACETRACK.ORG API,18 SPCS,52180,SPACEBEE-134,PAYLOAD,U,22033Z,2023/3/17 4:12,364896,15.36091749,0.0007386,97.3522,159.1104,141.2582,218.9193,0,999,5329,0.0013781,0.00048655,0,3863278,0 SPACEBEE-134,1 52180U 22033Z   23076.17542089  .00048655  00000-0  13781-2 0  9990,2 52180  97.3522 159.1104 0007386 141.2582 218.9193 15.36091749 53291,2022-033Z,52180,6835.817,93.744,462.731,452.633,1,
GENERATED VIA SPACETRACK.ORG API,18 SPCS,52180,SPACEBEE-134,PAYLOAD,U,22033Z,2023/3/17 22:58,317824,15.36180088,0.0007331,97.3522,159.8912,138.3062,221.8742,0,999,5339,0.0015873,0.00056267,0,3863811,0 SPACEBEE-134,1 52180U 22033Z   23076.95711016  .00056267  00000-0  15873-2 0  9996,2 52180  97.3522 159.8912 0007331 138.3062 221.8742 15.36180088 53394,2022-033Z,52180,6835.555,93.739,462.431,452.408,1,
GENERATED VIA SPACETRACK.ORG API,18 SPCS,52180,SPACEBEE-134,PAYLOAD,U,22033Z,2023/3/18 17:43,508896,15.36260241,0.0007356,97.353,160.6733,136.0832,224.0998,0,999,5353,0.0014714,0.0005226,0,3864479,0 SPACEBEE-134,1 52180U 22033Z   23077.73875589  .00052260  00000-0  14714-2 0  9991,2 52180  97.3530 160.6733 0007356 136.0832 224.0998 15.36260241 53535,2022-033Z,52180,6835.317,93.734,462.21,452.154,1,
GENERATED VIA SPACETRACK.ORG API,18 SPCS,52180,SPACEBEE-134,PAYLOAD,U,22033Z,2023/3/19 4:40,635904,15.36314299,0.0007285,97.3528,161.1283,135.7425,224.4403,0,999,5358,0.0014168,0.00050392,0,3864742,0 SPACEBEE-134,1 52180U 22033Z   23078.19469486  .00050392  00000-0  14168-2 0  9994,2 52180  97.3528 161.1283 0007285 135.7425 224.4403 15.36314299 53586,2022-033Z,52180,6835.156,93.731,462.001,452.042,1,
GENERATED VIA SPACETRACK.ORG API,18 SPCS,52180,SPACEBEE-134,PAYLOAD,U,22033Z,2023/3/19 4:40,635904,15.36314299,0.0007285,97.3528,161.1283,135.7425,224.4403,0,999,5360,0.0014168,0.00050392,0,3865049,0 SPACEBEE-134,1 52180U 22033Z   23078.19469486  .00050392  00000-0  14168-2 0  9994,2 52180  97.3528 161.1283 0007285 135.7425 224.4403 15.36314299 53609,2022-033Z,52180,6835.156,93.731,462.001,452.042,1,
GENERATED VIA SPACETRACK.ORG API,18 SPCS,52180,SPACEBEE-134,PAYLOAD,U,22033Z,2023/3/19 18:44,88160,15.36381148,0.0007168,97.3527,161.7144,133.5051,226.679,0,999,5369,0.0015582,0.00055584,0,3865354,0 SPACEBEE-134,1 52180U 22033Z   23078.78088065  .00055584  00000-0  15582-2 0  9998,2 52180  97.3527 161.7144 0007168 133.5051 226.6790 15.36381148 53690,2022-033Z,52180,6834.958,93.727,461.722,451.924,1,
GENERATED VIA SPACETRACK.ORG API,18 SPCS,52180,SPACEBEE-134,PAYLOAD,U,22033Z,2023/3/20 4:07,95680,15.36429931,0.0007239,97.3526,162.1044,132.4283,227.7575,0,999,5373,0.0015627,0.00055834,0,3865625,0 SPACEBEE-134,1 52180U 22033Z   23079.17165620  .00055834  00000-0  15627-2 0  9993,2 52180  97.3526 162.1044 0007239 132.4283 227.7575 15.36429931 53738,2022-033Z,52180,6834.814,93.724,461.626,451.731,1,
GENERATED VIA SPACETRACK.ORG API,18 SPCS,52180,SPACEBEE-134,PAYLOAD,U,22033Z,2023/3/20 4:07,95680,15.36429931,0.0007239,97.3526,162.1044,132.4283,227.7575,0,999,5375,0.0015627,0.00055834,0,3865912,0 SPACEBEE-134,1 52180U 22033Z   23079.17165620  .00055834  00000-0  15627-2 0  9993,2 52180  97.3526 162.1044 0007239 132.4283 227.7575 15.36429931 53750,2022-033Z,52180,6834.814,93.724,461.626,451.731,1,
GENERATED VIA SPACETRACK.ORG API,18 SPCS,52180,SPACEBEE-134,PAYLOAD,U,22033Z,2023/3/20 18:11,827552,15.36495566,0.0007174,97.3525,162.6906,129.8469,230.3407,0,999,5384,0.0016457,0.00058951,0,3866115,0 SPACEBEE-134,1 52180U 22033Z   23079.75779893  .00058951  00000-0  16457-2 0  9995,2 52180  97.3525 162.6906 0007174 129.8469 230.3407 15.36495566 53846,2022-033Z,52180,6834.619,93.72,461.387,451.581,1,
GENERATED VIA SPACETRACK.ORG API,18 SPCS,52180,SPACEBEE-134,PAYLOAD,U,22033Z,2023/3/21 5:07,886688,15.36557317,0.0007203,97.3524,163.1458,129.045,231.1436,0,999,5389,0.0016059,0.00057628,0,3866498,0 SPACEBEE-134,1 52180U 22033Z   23080.21366767  .00057628  00000-0  16059-2 0  9998,2 52180  97.3524 163.1458 0007203 129.0450 231.1436 15.36557317 53897,2022-033Z,52180,6834.436,93.716,461.224,451.378,1,
GENERATED VIA SPACETRACK.ORG API,18 SPCS,52180,SPACEBEE-134,PAYLOAD,U,22033Z,2023/3/21 5:07,886688,15.36557317,0.0007203,97.3524,163.1458,129.045,231.1436,0,999,5391,0.0016059,0.00057628,0,3866730,0 SPACEBEE-134,1 52180U 22033Z   23080.21366767  .00057628  00000-0  16059-2 0  9998,2 52180  97.3524 163.1458 0007203 129.0450 231.1436 15.36557317 53910,2022-033Z,52180,6834.436,93.716,461.224,451.378,1,
GENERATED VIA SPACETRACK.ORG API,18 SPCS,52180,SPACEBEE-134,PAYLOAD,U,22033Z,2023/3/21 19:11,424704,15.36618249,0.0007083,97.3518,163.7318,126.958,233.2314,0,999,5400,0.001471,0.00052849,0,3866953,0 SPACEBEE-134,1 52180U 22033Z   23080.79976186  .00052849  00000-0  14710-2 0  9995,2 52180  97.3518 163.7318 0007083 126.9580 233.2314 15.36618249 54001,2022-033Z,52180,6834.255,93.712,460.961,451.279,1,
GENERATED VIA SPACETRACK.ORG API,18 SPCS,52180,SPACEBEE-134,PAYLOAD,U,22033Z,2023/3/22 18:38,603616,15.3675005,0.0006991,97.3513,164.7081,123.5648,236.6265,0,999,5413,0.0018067,0.00065308,0,3867900,0 SPACEBEE-134,1 52180U 22033Z   23081.77652319  .00065308  00000-0  18067-2 0  9996,2 52180  97.3513 164.7081 0006991 123.5648 236.6265 15.36750050 54132,2022-033Z,52180,6833.864,93.704,460.507,450.952,1,
GENERATED VIA SPACETRACK.ORG API,18 SPCS,52180,SPACEBEE-134,PAYLOAD,U,22033Z,2023/3/22 18:38,603616,15.3675005,0.0006991,97.3513,164.7081,123.5648,236.6265,0,999,5415,0.0018067,0.00065308,0,3868201,0 SPACEBEE-134,1 52180U 22033Z   23081.77652319  .00065308  00000-0  18067-2 0  9996,2 52180  97.3513 164.7081 0006991 123.5648 236.6265 15.36750050 54154,2022-033Z,52180,6833.864,93.704,460.507,450.952,1,
GENERATED VIA SPACETRACK.ORG API,18 SPCS,52180,SPACEBEE-134,PAYLOAD,U,22033Z,2023/3/23 4:00,467936,15.36799555,0.0007074,97.3514,165.0985,122.921,237.2715,0,999,5421,0.0014037,0.00050708,0,3868494,0 SPACEBEE-134,1 52180U 22033Z   23082.16720449  .00050708  00000-0  14037-2 0  9991,2 52180  97.3514 165.0985 0007074 122.9210 237.2715 15.36799555 54210,2022-033Z,52180,6833.718,93.701,460.417,450.748,1,
GENERATED VIA SPACETRACK.ORG API,18 SPCS,52180,SPACEBEE-134,PAYLOAD,U,22033Z,2023/3/23 18:04,866208,15.36873031,0.0006993,97.351,165.6849,120.4502,239.7434,0,999,5430,0.0018224,0.00066145,0,3868816,0 SPACEBEE-134,1 52180U 22033Z   23082.75320447  .00066145  00000-0  18224-2 0  9994,2 52180  97.3510 165.6849 0006993 120.4502 239.7434 15.36873031 54304,2022-033Z,52180,6833.5,93.697,460.143,450.586,1,
GENERATED VIA SPACETRACK.ORG API,18 SPCS,52180,SPACEBEE-134,PAYLOAD,U,22033Z,2023/3/24 5:00,731008,15.37017083,0.0006986,97.3506,166.1401,119.5589,240.6353,0,999,5435,0.0064428,0.00240542,0,3869173,0 SPACEBEE-134,1 52180U 22033Z   23083.20895522  .00240542  00000-0  64428-2 0  9998,2 52180  97.3506 166.1401 0006986 119.5589 240.6353 15.37017083 54359,2022-033Z,52180,6833.073,93.688,459.711,450.164,1,
GENERATED VIA SPACETRACK.ORG API,18 SPCS,52180,SPACEBEE-134,PAYLOAD,U,22033Z,2023/3/24 5:00,731008,15.37017083,0.0006986,97.3506,166.1401,119.5589,240.6353,0,999,5437,0.0064428,0.00240542,0,3869846,0 SPACEBEE-134,1 52180U 22033Z   23083.20895522  .00240542  00000-0  64428-2 0  9998,2 52180  97.3506 166.1401 0006986 119.5589 240.6353 15.37017083 54371,2022-033Z,52180,6833.073,93.688,459.711,450.164,1,
